CCSDS_OMM_VERS = 2.0
CREATION_DATE  = 
ORIGINATOR     = 

OBJECT_NAME    = UNKNOWN
OBJECT_ID      = 
CENTER_NAME    = EARTH
REF_FRAME      = TEME
TIME_SYSTEM    = UTC
MEAN_ELEMENT_THEORY = SGP/SGP4

EPOCH          = 2026-05-22T14:17:23.800704
MEAN_MOTION    = 14.73734344
ECCENTRICITY   = .00443318
INCLINATION    = 88.9541
RA_OF_ASC_NODE = 269.0883
ARG_OF_PERICENTER = 337.1866
MEAN_ANOMALY   = 22.7383

EPHEMERIS_TYPE = 0
CLASSIFICATION_TYPE = U
NORAD_CAT_ID   = 270444
ELEMENT_SET_NO = 999
REV_AT_EPOCH   = 9431
BSTAR          = .15189056E-2
MEAN_MOTION_DOT = .10099E-3
MEAN_MOTION_DDOT = 0

CCSDS_OMM_VERS = 2.0
CREATION_DATE  = 
ORIGINATOR     = 

OBJECT_NAME    = UNKNOWN
OBJECT_ID      = 
CENTER_NAME    = EARTH
REF_FRAME      = TEME
TIME_SYSTEM    = UTC
MEAN_ELEMENT_THEORY = SGP/SGP4

EPOCH          = 2026-05-22T14:51:14.371776
MEAN_MOTION    = 14.59149602
ECCENTRICITY   = .00929644
INCLINATION    = 88.8707
RA_OF_ASC_NODE = 262.5069
ARG_OF_PERICENTER = 330.3851
MEAN_ANOMALY   = 29.2114

EPHEMERIS_TYPE = 0
CLASSIFICATION_TYPE = U
NORAD_CAT_ID   = 270445
ELEMENT_SET_NO = 999
REV_AT_EPOCH   = 9270
BSTAR          = .33522202E-3
MEAN_MOTION_DOT = .1694E-4
MEAN_MOTION_DDOT = 0

CCSDS_OMM_VERS = 2.0
CREATION_DATE  = 
ORIGINATOR     = 

OBJECT_NAME    = UNKNOWN
OBJECT_ID      = 
CENTER_NAME    = EARTH
REF_FRAME      = TEME
TIME_SYSTEM    = UTC
MEAN_ELEMENT_THEORY = SGP/SGP4

EPOCH          = 2026-05-22T15:12:08.040960
MEAN_MOTION    = 14.55307507
ECCENTRICITY   = .00987256
INCLINATION    = 89.0816
RA_OF_ASC_NODE = 280.1398
ARG_OF_PERICENTER = 337.1965
MEAN_ANOMALY   = 22.4874

EPHEMERIS_TYPE = 0
CLASSIFICATION_TYPE = U
NORAD_CAT_ID   = 270447
ELEMENT_SET_NO = 999
REV_AT_EPOCH   = 9219
BSTAR          = .15176988E-3
MEAN_MOTION_DOT = .719E-5
MEAN_MOTION_DDOT = 0

CCSDS_OMM_VERS = 2.0
CREATION_DATE  = 
ORIGINATOR     = 

OBJECT_NAME    = UNKNOWN
OBJECT_ID      = 
CENTER_NAME    = EARTH
REF_FRAME      = TEME
TIME_SYSTEM    = UTC
MEAN_ELEMENT_THEORY = SGP/SGP4

EPOCH          = 2026-05-22T08:56:01.896288
MEAN_MOTION    = 14.14741110
ECCENTRICITY   = .00702585
INCLINATION    = 89.1498
RA_OF_ASC_NODE = 289.7912
ARG_OF_PERICENTER = 291.5945
MEAN_ANOMALY   = 67.7766

EPHEMERIS_TYPE = 0
CLASSIFICATION_TYPE = U
NORAD_CAT_ID   = 270448
ELEMENT_SET_NO = 999
REV_AT_EPOCH   = 8904
BSTAR          = .32732211E-3
MEAN_MOTION_DOT = .658E-5
MEAN_MOTION_DDOT = 0

CCSDS_OMM_VERS = 2.0
CREATION_DATE  = 
ORIGINATOR     = 

OBJECT_NAME    = UNKNOWN
OBJECT_ID      = 
CENTER_NAME    = EARTH
REF_FRAME      = TEME
TIME_SYSTEM    = UTC
MEAN_ELEMENT_THEORY = SGP/SGP4

EPOCH          = 2026-05-21T02:30:44.616384
MEAN_MOTION    = 14.19738147
ECCENTRICITY   = .00425871
INCLINATION    = 88.9855
RA_OF_ASC_NODE = 276.7602
ARG_OF_PERICENTER = 288.3612
MEAN_ANOMALY   = 71.2948

EPHEMERIS_TYPE = 0
CLASSIFICATION_TYPE = U
NORAD_CAT_ID   = 270449
ELEMENT_SET_NO = 999
REV_AT_EPOCH   = 8952
BSTAR          = .89839526E-4
MEAN_MOTION_DOT = .206E-5
MEAN_MOTION_DDOT = 0

